#dP2025  1 24 18  0  0.00000000      96 __u+U IGS20 EXT  IAC
## 2350 496800.00000000   900.00000000 60699 0.7500000000000
+   53   G01G02G03G04G05G06G07G08G09G10G11G12G13G14G15G16G17
+        G18G19G20G21G22G23G24G25G26G27G28G29G30G31G32R01R02
+        R03R04R05R06R07R08R09R11R12R14R15R16R17R18R19R20R21
+        R22R24  0  0  0  0  0  0  0  0  0  0  0  0  0  0  0
+          0  0  0  0  0  0  0  0  0  0  0  0  0  0  0  0  0
++         8  8  8  9  8  8  8  8  8  8  8  8  8  8  8  8  8
++         8  9  8  7  7  8  8  8  7  8  8  8  8  8  8  8  9
++         8  9  8  9  9  9  9  8  9  8  9  8  9  8  7  8  9
++        10  9  0  0  0  0  0  0  0  0  0  0  0  0  0  0  0
++         0  0  0  0  0  0  0  0  0  0  0  0  0  0  0  0  0
%c M  cc GPS ccc cccc cccc cccc cccc ccccc ccccc ccccc ccccc
%c cc cc ccc ccc cccc cccc cccc cccc ccccc ccccc ccccc ccccc
%f  0.0000000  0.000000000  0.00000000000  0.000000000000000
%f  0.0000000  0.000000000  0.00000000000  0.000000000000000
%i    0    0    0    0      0      0      0      0         0
%i    0    0    0    0      0      0      0      0         0
/* IAC                                ULTRA-RAPID PREDICTION
/* S/V CLOCKS ARE ALIGNED TO GNSS TIME                      
/* G:C1WC2W R:C1PC2P E:C1XC5X C:C2IC6I J:C1CC2S             
/* PCV:IGS20_2317 OL/AL:FES2004  NONE     YN ORB:CoN CLK:CoN
*  2025 01 25  5 30  0.00000000
PG01 -10989.488114  19194.812187 -14694.586718     74.846984
PG02 -11205.876683  20687.810503 -11458.298810   -259.543539
PG03   -429.637611  15460.007363 -21773.017851    652.325711
PG04   -973.085712  26042.343387  -4661.392063    517.177681
PG05  15466.171758  -8526.227332  19686.470709   -200.020009
PG06  21058.499600  -2250.547740 -16039.417067   -142.260456
PG07   5256.763215  15312.415171  21537.307801    -13.376072
PG08  -7264.151535  20608.325813  14637.289949    467.699458
PG09   6693.107437  25314.512838   4146.276242    541.964958
PG10 -24569.366511 -10559.907769      0.265927   -291.095333
PG11  23367.277684 -11109.563817  -5821.007428   -750.560673
PG12   4276.555218 -14949.726243 -21828.524911   -566.426220
PG13  13116.715934 -12853.029649  18863.300943    694.523357
PG14  23126.508793  12946.857410   3217.053342    586.364730
PG15   4117.412715 -21967.251150  13723.692432    255.652402
PG16 -20442.879137   2365.135341  16675.573458    -69.439241
PG17  12633.892284  15673.378132 -16809.963991    458.267223
PG18  -6815.731123 -13428.535223  21895.983596   -656.490216
PG19  14960.077659   5531.919405 -21437.770035    590.244139
PG20  24013.433914  -2556.971326  11001.504473    366.813256
PG21 -15923.899247  19671.296662  -5419.445211    101.590571
PG22  24180.507979   9422.310652  -4426.880349    -93.997457
PG23 -16843.309252 -16032.288009  13090.752223    410.574083
PG24  11776.458730 -21397.529100 -10401.866073   -460.162132
PG25  -9993.864183 -17644.126404 -17650.503033    496.194161
PG26 -25557.707194  -2552.300383   7327.704958    -62.335781
PG27 -13175.778205   9827.099920  20456.486387    -32.567814
PG28 -20215.652701    808.168713 -17224.729954   -543.851018
PG29  -4281.670936 -25755.188380   4461.067307   -544.020272
PG30  16081.206875   6590.357741  20305.236073   -231.490591
PG31 -23456.464020   7692.751715 -10512.334849   -217.094142
PG32 -14835.529184 -10504.116834 -19204.151353   -535.119119
PR01   8586.917611  -6917.028452  23006.122657    112.419769
PR02  -2069.010156 -20227.738929  15497.778690    -38.148372
PR03 -12145.648631 -22432.485189  -1241.837297    115.552835
PR04 -14756.324210 -12491.072078 -16617.567023    274.082031
PR05  -9817.683875   4156.515671 -23158.741646    144.325647
PR06  15137.452401  13644.441896  15377.773218   -131.462177
PR07  12270.611693  22268.137628   1712.576493     99.522426
PR08  14946.138405  11953.991464  16906.900047     -6.336789
PR09  -6380.847137  10917.875806  22154.007308    234.073904
PR11  23735.893471   4765.973447   8067.693220     -3.441811
PR12  22329.066928  -4517.089493 -11444.871177     50.006043
PR14 -12210.883153 -10140.187472 -19957.582179     27.647055
PR15 -24379.435581  -4106.718046  -6257.214667     71.847241
PR16 -22373.776755   4450.370915  11379.647951     32.728248
PR17  -1554.414024 -14941.122351  20616.568682    160.472378
PR18 -11929.068577   -605.122932  22549.823655    183.648047
PR19 -16917.521250  12271.080672  14628.343830   -306.755032
PR20 -12127.898435  21529.048975  -6225.886750   -125.008785
PR21    343.092079  15866.657112 -19972.796639   -171.065668
PR22  12923.739467   -237.700356 -21963.878024    -57.583669
PR24  10641.104261 -22198.516742   6682.472284    -89.609500
*  2025 01 25  5 45  0.00000000
PG01 -12387.768931  19905.651020 -12468.209262     74.872193
PG02 -12272.336088  21364.635538  -8909.269395   -259.535170
PG03  -2737.465124  14572.368515 -22206.272254    652.331589
PG04  -1293.918219  25379.261147  -7426.085502    517.182868
PG05  17518.698092  -7729.969020  18262.399646   -200.021024
PG06  19588.471592   -973.814717 -17902.071617   -142.283984
PG07   3396.189996  16705.590951  20805.985665    -13.376063
PG08  -7838.498247  18857.456915  16596.171260    467.706141
PG09   6496.372395  25678.350309   1308.776496    541.978010
PG10 -24386.132906 -10652.190784   2882.192597   -291.109439
PG11  22838.028090 -10433.060669  -8530.193528   -750.559360
PG12   6492.845231 -13922.698347 -21958.550810   -566.428187
PG13  13254.972832 -10572.807185  20145.299810    694.524388
PG14  22542.420874  13007.161784   5960.038459    586.371043
PG15   4906.693029 -20352.959099  15742.592579    255.656367
PG16 -22025.389347   1410.541162  14735.681623    -69.430871
PG17  12627.176976  17568.943309 -14856.089348    458.251093
PG18  -4836.908211 -14909.831135  21438.950399   -656.488703
PG19  15034.397939   7902.324095 -20661.972578    590.248155
PG20  25053.908345  -2109.112947   8450.100391    366.812998
PG21 -16529.228933  19784.243270  -2547.268637    101.590913
PG22  24403.390689   9849.652701  -1583.428960    -93.999115
PG23 -15286.503304 -15617.575118  15301.687234    410.580757
PG24  12712.276718 -21875.188649  -7847.443662   -460.158227
PG25  -8036.016135 -17074.499864 -19153.602186    496.193596
PG26 -26149.325400  -3039.205951   4670.709673    -62.350041
PG27 -13664.424972   7419.383020  21167.741849    -32.567297
PG28 -18744.566062   -640.438932 -18822.190746   -543.859322
PG29  -4068.434261 -26126.904464   1611.528169   -544.017221
PG30  14312.328929   8120.855941  21042.260109   -231.482896
PG31 -22553.974677   6743.195822 -12891.801196   -217.093329
PG32 -15065.650256 -12643.739547 -17713.180747   -535.112531
PR01  10037.308911  -4476.150435  23024.312307    112.421055
PR02  -1212.123798 -18371.959010  17738.360779    -38.148066
PR03 -12277.862878 -22314.835827   1975.482131    115.553428
PR04 -15784.566989 -14105.733377 -14212.839906    274.083624
PR05 -11177.518847   1657.438051 -22856.411430    144.326272
PR06  16105.803915  15092.203251  12827.453287   -131.461195
PR07  12418.431607  22193.956889  -1513.175869     99.523302
PR08  15988.453939  13584.318606  14545.131596     -6.336774
PR09  -9048.598709  10994.966790  21157.031153    234.076029
PR11  22562.076358   4626.274493  10988.319049     -3.444609
PR12  23567.357424  -4620.053108  -8560.735012     50.006416
PR14  -9662.837055 -10086.864985 -21334.704394     27.647111
PR15 -23421.317618  -3976.312826  -9270.644854     71.846897
PR16 -23601.200316   4574.796909   8478.201278     32.728528
PR17   -367.830271 -17076.970956  18941.666601    160.475262
PR18 -10406.185269  -2974.857630  23113.754451    183.649780
PR19 -15696.653463  10737.091208  17003.469682   -306.756297
PR20 -12275.560449  22123.355114  -3044.012518   -125.009576
PR21   -802.437185  17926.361196 -18134.797751   -171.068561
PR22  11381.307594   2055.220178 -22707.543003    -57.585225
PR24  10842.234139 -22811.725818   3549.482245    -89.610939
EOF
